ORBCOMM-X               
1 21576U 91050C   25216.42095775  .00000272  00000+0  93469-4 0  9996
2 21576  98.3406 282.0319 0004494  54.3766 305.7843 14.43292650789291
ORBCOMM FM01            
1 23545U 95017A   25215.65400608  .00004787  00000+0  49758-3 0  9996
2 23545  69.9645 315.7337 0005656 256.6255 103.4269 14.90520150619583
ORBCOMM FM02            
1 23546U 95017B   25215.76926483  .00007314  00000+0  73744-3 0  9994
2 23546  69.9661 334.6778 0006923 253.1569 106.8827 14.91479244619258
ORBCOMM FM08            
1 25112U 97084A   25215.92544195  .00001441  00000+0  44168-3 0  9998
2 25112  45.0137 138.6799 0004812 119.7201 240.4130 14.45928255448287
ORBCOMM FM10            
1 25113U 97084B   25215.84451923  .00001337  00000+0  41448-3 0  9998
2 25113  45.0148 141.5327 0004177  72.6237 287.5071 14.45709844623417
ORBCOMM FM11            
1 25114U 97084C   25215.92644860  .00001331  00000+0  41489-3 0  9991
2 25114  45.0134 141.8590 0004852  78.2877 281.8518 14.45458319448382
ORBCOMM FM12            
1 25115U 97084D   25216.16468277  .00001310  00000+0  40882-3 0  9998
2 25115  45.0140 140.4614 0004058  72.0073 288.1220 14.45481908448458
ORBCOMM FM09            
1 25116U 97084E   25216.20116043  .00001337  00000+0  41751-3 0  9990
2 25116  45.0144 141.2669 0005563  67.1819 292.9619 14.45355962448452
