<?xml version="1.0" encoding="UTF-8"?>
<ndm xmlns:xsi="http://www.w3.org/2001/XMLSchema-instance" xsi:noNamespaceSchemaLocation="https://sanaregistry.org/r/ndmxml_unqualified/ndmxml-2.0.0-master-2.0.xsd">
<omm id="CCSDS_OMM_VERS" version="2.0">
<header><CREATION_DATE/><ORIGINATOR/></header><body><segment><metadata><OBJECT_NAME>ORBCOMM-X</OBJECT_NAME><OBJECT_ID>1991-050C</OBJECT_ID><CENTER_NAME>EARTH</CENTER_NAME><REF_FRAME>TEME</REF_FRAME><TIME_SYSTEM>UTC</TIME_SYSTEM><MEAN_ELEMENT_THEORY>SGP4</MEAN_ELEMENT_THEORY></metadata><data><meanElements><EPOCH>2025-08-04T10:06:10.749600</EPOCH><MEAN_MOTION>14.43292650</MEAN_MOTION><ECCENTRICITY>.0004494</ECCENTRICITY><INCLINATION>98.3406</INCLINATION><RA_OF_ASC_NODE>282.0319</RA_OF_ASC_NODE><ARG_OF_PERICENTER>54.3766</ARG_OF_PERICENTER><MEAN_ANOMALY>305.7843</MEAN_ANOMALY></meanElements><tleParameters><EPHEMERIS_TYPE>0</EPHEMERIS_TYPE><CLASSIFICATION_TYPE>U</CLASSIFICATION_TYPE><NORAD_CAT_ID>21576</NORAD_CAT_ID><ELEMENT_SET_NO>999</ELEMENT_SET_NO><REV_AT_EPOCH>78929</REV_AT_EPOCH><BSTAR>.93469E-4</BSTAR><MEAN_MOTION_DOT>.272E-5</MEAN_MOTION_DOT><MEAN_MOTION_DDOT>0</MEAN_MOTION_DDOT></tleParameters></data></segment></body></omm>
<omm id="CCSDS_OMM_VERS" version="2.0">
<header><CREATION_DATE/><ORIGINATOR/></header><body><segment><metadata><OBJECT_NAME>ORBCOMM FM01</OBJECT_NAME><OBJECT_ID>1995-017A</OBJECT_ID><CENTER_NAME>EARTH</CENTER_NAME><REF_FRAME>TEME</REF_FRAME><TIME_SYSTEM>UTC</TIME_SYSTEM><MEAN_ELEMENT_THEORY>SGP4</MEAN_ELEMENT_THEORY></metadata><data><meanElements><EPOCH>2025-08-03T15:41:46.125312</EPOCH><MEAN_MOTION>14.90520150</MEAN_MOTION><ECCENTRICITY>.0005656</ECCENTRICITY><INCLINATION>69.9645</INCLINATION><RA_OF_ASC_NODE>315.7337</RA_OF_ASC_NODE><ARG_OF_PERICENTER>256.6255</ARG_OF_PERICENTER><MEAN_ANOMALY>103.4269</MEAN_ANOMALY></meanElements><tleParameters><EPHEMERIS_TYPE>0</EPHEMERIS_TYPE><CLASSIFICATION_TYPE>U</CLASSIFICATION_TYPE><NORAD_CAT_ID>23545</NORAD_CAT_ID><ELEMENT_SET_NO>999</ELEMENT_SET_NO><REV_AT_EPOCH>61958</REV_AT_EPOCH><BSTAR>.49758E-3</BSTAR><MEAN_MOTION_DOT>.4787E-4</MEAN_MOTION_DOT><MEAN_MOTION_DDOT>0</MEAN_MOTION_DDOT></tleParameters></data></segment></body></omm>
<omm id="CCSDS_OMM_VERS" version="2.0">
<header><CREATION_DATE/><ORIGINATOR/></header><body><segment><metadata><OBJECT_NAME>ORBCOMM FM02</OBJECT_NAME><OBJECT_ID>1995-017B</OBJECT_ID><CENTER_NAME>EARTH</CENTER_NAME><REF_FRAME>TEME</REF_FRAME><TIME_SYSTEM>UTC</TIME_SYSTEM><MEAN_ELEMENT_THEORY>SGP4</MEAN_ELEMENT_THEORY></metadata><data><meanElements><EPOCH>2025-08-03T18:27:44.481312</EPOCH><MEAN_MOTION>14.91479244</MEAN_MOTION><ECCENTRICITY>.0006923</ECCENTRICITY><INCLINATION>69.9661</INCLINATION><RA_OF_ASC_NODE>334.6778</RA_OF_ASC_NODE><ARG_OF_PERICENTER>253.1569</ARG_OF_PERICENTER><MEAN_ANOMALY>106.8827</MEAN_ANOMALY></meanElements><tleParameters><EPHEMERIS_TYPE>0</EPHEMERIS_TYPE><CLASSIFICATION_TYPE>U</CLASSIFICATION_TYPE><NORAD_CAT_ID>23546</NORAD_CAT_ID><ELEMENT_SET_NO>999</ELEMENT_SET_NO><REV_AT_EPOCH>61925</REV_AT_EPOCH><BSTAR>.73744E-3</BSTAR><MEAN_MOTION_DOT>.7314E-4</MEAN_MOTION_DOT><MEAN_MOTION_DDOT>0</MEAN_MOTION_DDOT></tleParameters></data></segment></body></omm>
<omm id="CCSDS_OMM_VERS" version="2.0">
<header><CREATION_DATE/><ORIGINATOR/></header><body><segment><metadata><OBJECT_NAME>ORBCOMM FM08</OBJECT_NAME><OBJECT_ID>1997-084A</OBJECT_ID><CENTER_NAME>EARTH</CENTER_NAME><REF_FRAME>TEME</REF_FRAME><TIME_SYSTEM>UTC</TIME_SYSTEM><MEAN_ELEMENT_THEORY>SGP4</MEAN_ELEMENT_THEORY></metadata><data><meanElements><EPOCH>2025-08-03T22:12:38.184480</EPOCH><MEAN_MOTION>14.45928255</MEAN_MOTION><ECCENTRICITY>.0004812</ECCENTRICITY><INCLINATION>45.0137</INCLINATION><RA_OF_ASC_NODE>138.6799</RA_OF_ASC_NODE><ARG_OF_PERICENTER>119.7201</ARG_OF_PERICENTER><MEAN_ANOMALY>240.4130</MEAN_ANOMALY></meanElements><tleParameters><EPHEMERIS_TYPE>0</EPHEMERIS_TYPE><CLASSIFICATION_TYPE>U</CLASSIFICATION_TYPE><NORAD_CAT_ID>25112</NORAD_CAT_ID><ELEMENT_SET_NO>999</ELEMENT_SET_NO><REV_AT_EPOCH>44828</REV_AT_EPOCH><BSTAR>.44168E-3</BSTAR><MEAN_MOTION_DOT>.1441E-4</MEAN_MOTION_DOT><MEAN_MOTION_DDOT>0</MEAN_MOTION_DDOT></tleParameters></data></segment></body></omm>
<omm id="CCSDS_OMM_VERS" version="2.0">
<header><CREATION_DATE/><ORIGINATOR/></header><body><segment><metadata><OBJECT_NAME>ORBCOMM FM10</OBJECT_NAME><OBJECT_ID>1997-084B</OBJECT_ID><CENTER_NAME>EARTH</CENTER_NAME><REF_FRAME>TEME</REF_FRAME><TIME_SYSTEM>UTC</TIME_SYSTEM><MEAN_ELEMENT_THEORY>SGP4</MEAN_ELEMENT_THEORY></metadata><data><meanElements><EPOCH>2025-08-03T20:16:06.461472</EPOCH><MEAN_MOTION>14.45709844</MEAN_MOTION><ECCENTRICITY>.0004177</ECCENTRICITY><INCLINATION>45.0148</INCLINATION><RA_OF_ASC_NODE>141.5327</RA_OF_ASC_NODE><ARG_OF_PERICENTER>72.6237</ARG_OF_PERICENTER><MEAN_ANOMALY>287.5071</MEAN_ANOMALY></meanElements><tleParameters><EPHEMERIS_TYPE>0</EPHEMERIS_TYPE><CLASSIFICATION_TYPE>U</CLASSIFICATION_TYPE><NORAD_CAT_ID>25113</NORAD_CAT_ID><ELEMENT_SET_NO>999</ELEMENT_SET_NO><REV_AT_EPOCH>62341</REV_AT_EPOCH><BSTAR>.41448E-3</BSTAR><MEAN_MOTION_DOT>.1337E-4</MEAN_MOTION_DOT><MEAN_MOTION_DDOT>0</MEAN_MOTION_DDOT></tleParameters></data></segment></body></omm>
<omm id="CCSDS_OMM_VERS" version="2.0">
<header><CREATION_DATE/><ORIGINATOR/></header><body><segment><metadata><OBJECT_NAME>ORBCOMM FM11</OBJECT_NAME><OBJECT_ID>1997-084C</OBJECT_ID><CENTER_NAME>EARTH</CENTER_NAME><REF_FRAME>TEME</REF_FRAME><TIME_SYSTEM>UTC</TIME_SYSTEM><MEAN_ELEMENT_THEORY>SGP4</MEAN_ELEMENT_THEORY></metadata><data><meanElements><EPOCH>2025-08-03T22:14:05.159040</EPOCH><MEAN_MOTION>14.45458319</MEAN_MOTION><ECCENTRICITY>.0004852</ECCENTRICITY><INCLINATION>45.0134</INCLINATION><RA_OF_ASC_NODE>141.8590</RA_OF_ASC_NODE><ARG_OF_PERICENTER>78.2877</ARG_OF_PERICENTER><MEAN_ANOMALY>281.8518</MEAN_ANOMALY></meanElements><tleParameters><EPHEMERIS_TYPE>0</EPHEMERIS_TYPE><CLASSIFICATION_TYPE>U</CLASSIFICATION_TYPE><NORAD_CAT_ID>25114</NORAD_CAT_ID><ELEMENT_SET_NO>999</ELEMENT_SET_NO><REV_AT_EPOCH>44838</REV_AT_EPOCH><BSTAR>.41489E-3</BSTAR><MEAN_MOTION_DOT>.1331E-4</MEAN_MOTION_DOT><MEAN_MOTION_DDOT>0</MEAN_MOTION_DDOT></tleParameters></data></segment></body></omm>
<omm id="CCSDS_OMM_VERS" version="2.0">
<header><CREATION_DATE/><ORIGINATOR/></header><body><segment><metadata><OBJECT_NAME>ORBCOMM FM12</OBJECT_NAME><OBJECT_ID>1997-084D</OBJECT_ID><CENTER_NAME>EARTH</CENTER_NAME><REF_FRAME>TEME</REF_FRAME><TIME_SYSTEM>UTC</TIME_SYSTEM><MEAN_ELEMENT_THEORY>SGP4</MEAN_ELEMENT_THEORY></metadata><data><meanElements><EPOCH>2025-08-04T03:57:08.591328</EPOCH><MEAN_MOTION>14.45481908</MEAN_MOTION><ECCENTRICITY>.0004058</ECCENTRICITY><INCLINATION>45.0140</INCLINATION><RA_OF_ASC_NODE>140.4614</RA_OF_ASC_NODE><ARG_OF_PERICENTER>72.0073</ARG_OF_PERICENTER><MEAN_ANOMALY>288.1220</MEAN_ANOMALY></meanElements><tleParameters><EPHEMERIS_TYPE>0</EPHEMERIS_TYPE><CLASSIFICATION_TYPE>U</CLASSIFICATION_TYPE><NORAD_CAT_ID>25115</NORAD_CAT_ID><ELEMENT_SET_NO>999</ELEMENT_SET_NO><REV_AT_EPOCH>44845</REV_AT_EPOCH><BSTAR>.40882E-3</BSTAR><MEAN_MOTION_DOT>.131E-4</MEAN_MOTION_DOT><MEAN_MOTION_DDOT>0</MEAN_MOTION_DDOT></tleParameters></data></segment></body></omm>
<omm id="CCSDS_OMM_VERS" version="2.0">
<header><CREATION_DATE/><ORIGINATOR/></header><body><segment><metadata><OBJECT_NAME>ORBCOMM FM09</OBJECT_NAME><OBJECT_ID>1997-084E</OBJECT_ID><CENTER_NAME>EARTH</CENTER_NAME><REF_FRAME>TEME</REF_FRAME><TIME_SYSTEM>UTC</TIME_SYSTEM><MEAN_ELEMENT_THEORY>SGP4</MEAN_ELEMENT_THEORY></metadata><data><meanElements><EPOCH>2025-08-04T04:49:40.261152</EPOCH><MEAN_MOTION>14.45355962</MEAN_MOTION><ECCENTRICITY>.0005563</ECCENTRICITY><INCLINATION>45.0144</INCLINATION><RA_OF_ASC_NODE>141.2669</RA_OF_ASC_NODE><ARG_OF_PERICENTER>67.1819</ARG_OF_PERICENTER><MEAN_ANOMALY>292.9619</MEAN_ANOMALY></meanElements><tleParameters><EPHEMERIS_TYPE>0</EPHEMERIS_TYPE><CLASSIFICATION_TYPE>U</CLASSIFICATION_TYPE><NORAD_CAT_ID>25116</NORAD_CAT_ID><ELEMENT_SET_NO>999</ELEMENT_SET_NO><REV_AT_EPOCH>44845</REV_AT_EPOCH><BSTAR>.41751E-3</BSTAR><MEAN_MOTION_DOT>.1337E-4</MEAN_MOTION_DOT><MEAN_MOTION_DDOT>0</MEAN_MOTION_DDOT></tleParameters></data></segment></body></omm>

</ndm>
